ELEKTRO-L 2             
1 41105U 15074A   26074.27873809 -.00000114  00000+0  00000+0 0  9996
2 41105   6.4571  71.6721 0002807 249.8242 297.2200  1.00273414 37563
GSAT0209 (GALILEO 12)   
1 41174U 15079A   26073.59877879  .00000042  00000+0  00000+0 0  9991
2 41174  55.7661 103.8551 0005024 323.1920  36.8517  1.70474547 63168
GSAT0208 (GALILEO 11)   
1 41175U 15079B   26072.05924766  .00000030  00000+0  00000+0 0  9997
2 41175  55.7636 103.8944 0004380 323.4331  36.6088  1.70474457 63554
GPS BIIF-12             
1 41328U 16007A   26072.13767287  .00000030  00000+0  00000+0 0  9991
2 41328  55.4616  93.2660 0095647 246.2279 112.8230  2.00556390 73913
GSAT0211 (GALILEO 14)   
1 41549U 16030A   26073.94299010  .00000032  00000+0  00000+0 0  9998
2 41549  55.1274 224.2841 0003384  23.2273 336.7393  1.70473906 61063
GSAT0210 (GALILEO 13)   
1 41550U 16030B   26073.61368000  .00000033  00000+0  00000+0 0  9991
2 41550  55.1254 224.2912 0001477 201.7077 158.2389  1.70474017 61053
INSAT-3DR               
1 41752U 16054A   26074.08235059 -.00000078  00000+0  00000+0 0  9990
2 41752   0.0736  91.5367 0012708 190.6992 354.0875  1.00271936 34875
GSAT0207 (GALILEO 15)   
1 41859U 16069A   26072.71887421  .00000034  00000+0  00000+0 0  9999
2 41859  55.4358 103.7267 0005361 309.9075  50.1195  1.70474457 57779
GSAT0212 (GALILEO 16)   
1 41860U 16069B   26071.98582704  .00000029  00000+0  00000+0 0  9999
2 41860  55.4332 103.7422 0003884 334.9903  25.0622  1.70474723 58012
GSAT0213 (GALILEO 17)   
1 41861U 16069C   26073.52642598  .00000040  00000+0  00000+0 0  9993
2 41861  55.4372 103.7072 0005480 293.9947  66.0255  1.70474947 57906
GSAT0214 (GALILEO 18)   
1 41862U 16069D   26071.91273604  .00000028  00000+0  00000+0 0  9999
2 41862  55.4337 103.7448 0004476 297.9628  62.0628  1.70474834 58006
GOES 16                 
1 41866U 16071A   26074.26088466 -.00000092  00000+0  00000+0 0  9999
2 41866   0.1254  86.8652 0002168 230.0129 205.2111  1.00272428 34160
GSAT-17                 
1 42815U 17040B   26074.08616394 -.00000258  00000+0  00000+0 0  9992
2 42815   0.0220 114.4189 0004483 179.3694   3.4161  1.00270477 31841
GSAT0215 (GALILEO 19)   
1 43055U 17079A   26071.81619082  .00000037  00000+0  00000+0 0  9990
2 43055  55.1052 224.1555 0000503 355.2258   4.7321  1.70474604 51342
GSAT0216 (GALILEO 20)   
1 43056U 17079B   26073.28055991  .00000034  00000+0  00000+0 0  9994
2 43056  55.1052 224.1154 0001736 311.7748  48.1644  1.70474699 51386
GSAT0217 (GALILEO 21)   
1 43057U 17079C   26071.74158320  .00000037  00000+0  00000+0 0  9997
2 43057  55.1048 224.1555 0001948 350.8522   9.1027  1.70474639 51348
GSAT0218 (GALILEO 22)   
1 43058U 17079D   26072.54820792  .00000036  00000+0  00000+0 0  9995
2 43058  55.1035 224.1311 0002024 298.9535  60.9828  1.70474604 51387
